[{"OBJECT_NAME":"ARIANE 5 R/B","OBJECT_ID":"2005-028B","EPOCH":"2026-03-05T18:10:45.217920","MEAN_MOTION":2.26684636,"ECCENTRICITY":0.7165101,"INCLINATION":6.8612,"RA_OF_ASC_NODE":263.4103,"ARG_OF_PERICENTER":71.8137,"MEAN_ANOMALY":349.4415,"EPHEMERIS_TYPE":0,"CLASSIFICATION_TYPE":"U","NORAD_CAT_ID":28787,"ELEMENT_SET_NO":999,"REV_AT_EPOCH":17029,"BSTAR":0.0012976,"MEAN_MOTION_DOT":-4.0e-7,"MEAN_MOTION_DDOT":0},{"OBJECT_NAME":"ANIK F1R","OBJECT_ID":"2005-036A","EPOCH":"2026-03-05T15:11:57.257376","MEAN_MOTION":1.00272331,"ECCENTRICITY":0.0003008,"INCLINATION":4.048,"RA_OF_ASC_NODE":77.8764,"ARG_OF_PERICENTER":303.5219,"MEAN_ANOMALY":262.6619,"EPHEMERIS_TYPE":0,"CLASSIFICATION_TYPE":"U","NORAD_CAT_ID":28868,"ELEMENT_SET_NO":999,"REV_AT_EPOCH":4541,"BSTAR":0,"MEAN_MOTION_DOT":-8.1e-7,"MEAN_MOTION_DDOT":0},{"OBJECT_NAME":"SYRACUSE 3A","OBJECT_ID":"2005-041B","EPOCH":"2026-03-05T15:55:45.558336","MEAN_MOTION":1.00272122,"ECCENTRICITY":0.0003635,"INCLINATION":4.3782,"RA_OF_ASC_NODE":77.1239,"ARG_OF_PERICENTER":271.4027,"MEAN_ANOMALY":99.9956,"EPHEMERIS_TYPE":0,"CLASSIFICATION_TYPE":"U","NORAD_CAT_ID":28885,"ELEMENT_SET_NO":999,"REV_AT_EPOCH":7471,"BSTAR":0,"MEAN_MOTION_DOT":1.25e-6,"MEAN_MOTION_DDOT":0},{"OBJECT_NAME":"ARIANE 5 R/B","OBJECT_ID":"2005-041C","EPOCH":"2026-03-05T12:37:12.245088","MEAN_MOTION":2.2442966,"ECCENTRICITY":0.7179754,"INCLINATION":7.7952,"RA_OF_ASC_NODE":241.3718,"ARG_OF_PERICENTER":295.0417,"MEAN_ANOMALY":11.9718,"EPHEMERIS_TYPE":0,"CLASSIFICATION_TYPE":"U","NORAD_CAT_ID":28886,"ELEMENT_SET_NO":999,"REV_AT_EPOCH":16713,"BSTAR":0.00049568,"MEAN_MOTION_DOT":-1.45e-6,"MEAN_MOTION_DDOT":0},{"OBJECT_NAME":"INMARSAT 4-F2","OBJECT_ID":"2005-044A","EPOCH":"2026-03-05T18:54:38.721024","MEAN_MOTION":1.00271238,"ECCENTRICITY":0.0002714,"INCLINATION":4.96,"RA_OF_ASC_NODE":43.8087,"ARG_OF_PERICENTER":323.6628,"MEAN_ANOMALY":223.1994,"EPHEMERIS_TYPE":0,"CLASSIFICATION_TYPE":"U","NORAD_CAT_ID":28899,"ELEMENT_SET_NO":999,"REV_AT_EPOCH":7448,"BSTAR":0,"MEAN_MOTION_DOT":-2.65e-6,"MEAN_MOTION_DDOT":0},{"OBJECT_NAME":"METEOSAT-9 (MSG-2)","OBJECT_ID":"2005-049B","EPOCH":"2026-03-05T14:12:55.418112","MEAN_MOTION":1.00277983,"ECCENTRICITY":0.0001671,"INCLINATION":9.1276,"RA_OF_ASC_NODE":55.1704,"ARG_OF_PERICENTER":223.3348,"MEAN_ANOMALY":143.8053,"EPHEMERIS_TYPE":0,"CLASSIFICATION_TYPE":"U","NORAD_CAT_ID":28912,"ELEMENT_SET_NO":999,"REV_AT_EPOCH":596,"BSTAR":0,"MEAN_MOTION_DOT":1.19e-6,"MEAN_MOTION_DDOT":0},{"OBJECT_NAME":"ARIANE 5 R/B","OBJECT_ID":"2005-049C","EPOCH":"2026-03-05T14:07:55.896096","MEAN_MOTION":2.24900335,"ECCENTRICITY":0.7147923,"INCLINATION":4.6092,"RA_OF_ASC_NODE":352.1673,"ARG_OF_PERICENTER":262.1399,"MEAN_ANOMALY":65.7413,"EPHEMERIS_TYPE":0,"CLASSIFICATION_TYPE":"U","NORAD_CAT_ID":28913,"ELEMENT_SET_NO":999,"REV_AT_EPOCH":16606,"BSTAR":0.0004454,"MEAN_MOTION_DOT":-4.2e-7,"MEAN_MOTION_DDOT":0},{"OBJECT_NAME":"ARIANE 5 DEB [SYLDA]","OBJECT_ID":"2005-049D","EPOCH":"2026-03-05T10:58:36.550272","MEAN_MOTION":2.23712476,"ECCENTRICITY":0.7155428,"INCLINATION":4.7039,"RA_OF_ASC_NODE":12.3696,"ARG_OF_PERICENTER":218.9952,"MEAN_ANOMALY":186.2202,"EPHEMERIS_TYPE":0,"CLASSIFICATION_TYPE":"U","NORAD_CAT_ID":28914,"ELEMENT_SET_NO":999,"REV_AT_EPOCH":16498,"BSTAR":-0.00019901,"MEAN_MOTION_DOT":-1.19e-6,"MEAN_MOTION_DDOT":0},{"OBJECT_NAME":"EUTELSAT 174A","OBJECT_ID":"2005-052A","EPOCH":"2026-03-05T16:19:38.594784","MEAN_MOTION":1.00274173,"ECCENTRICITY":0.0006281,"INCLINATION":3.9565,"RA_OF_ASC_NODE":77.8123,"ARG_OF_PERICENTER":271.0821,"MEAN_ANOMALY":233.4096,"EPHEMERIS_TYPE":0,"CLASSIFICATION_TYPE":"U","NORAD_CAT_ID":28924,"ELEMENT_SET_NO":999,"REV_AT_EPOCH":5129,"BSTAR":0,"MEAN_MOTION_DOT":4.0e-8,"MEAN_MOTION_DDOT":0},{"OBJECT_NAME":"ECHOSTAR 10","OBJECT_ID":"2006-003A","EPOCH":"2026-03-05T15:11:04.841952","MEAN_MOTION":1.00271748,"ECCENTRICITY":0.0002016,"INCLINATION":0.0574,"RA_OF_ASC_NODE":291.6586,"ARG_OF_PERICENTER":17.097,"MEAN_ANOMALY":332.1721,"EPHEMERIS_TYPE":0,"CLASSIFICATION_TYPE":"U","NORAD_CAT_ID":28935,"ELEMENT_SET_NO":999,"REV_AT_EPOCH":7342,"BSTAR":0,"MEAN_MOTION_DOT":-6.2e-7,"MEAN_MOTION_DDOT":0},{"OBJECT_NAME":"BLOCK DM-SL R/B","OBJECT_ID":"2006-003B","EPOCH":"2026-03-05T13:36:13.936608","MEAN_MOTION":2.19496457,"ECCENTRICITY":0.6796438,"INCLINATION":0.3297,"RA_OF_ASC_NODE":311.8421,"ARG_OF_PERICENTER":148.857,"MEAN_ANOMALY":194.1217,"EPHEMERIS_TYPE":0,"CLASSIFICATION_TYPE":"U","NORAD_CAT_ID":28936,"ELEMENT_SET_NO":999,"REV_AT_EPOCH":16080,"BSTAR":0,"MEAN_MOTION_DOT":-6.2e-7,"MEAN_MOTION_DDOT":0},{"OBJECT_NAME":"SPAINSAT","OBJECT_ID":"2006-007A","EPOCH":"2026-03-04T15:11:07.815840","MEAN_MOTION":1.00272419,"ECCENTRICITY":0.0004224,"INCLINATION":0.2928,"RA_OF_ASC_NODE":89.1835,"ARG_OF_PERICENTER":259.4534,"MEAN_ANOMALY":11.322,"EPHEMERIS_TYPE":0,"CLASSIFICATION_TYPE":"U","NORAD_CAT_ID":28945,"ELEMENT_SET_NO":999,"REV_AT_EPOCH":7317,"BSTAR":0,"MEAN_MOTION_DOT":-2.28e-6,"MEAN_MOTION_DDOT":0},{"OBJECT_NAME":"BREEZE-M R/B","OBJECT_ID":"2003-024C","EPOCH":"2026-03-04T10:39:00.554688","MEAN_MOTION":1.82403593,"ECCENTRICITY":0.50399977,"INCLINATION":16.7039,"RA_OF_ASC_NODE":143.0036,"ARG_OF_PERICENTER":53.3005,"MEAN_ANOMALY":9.1239,"EPHEMERIS_TYPE":0,"CLASSIFICATION_TYPE":"U","NORAD_CAT_ID":28998,"ELEMENT_SET_NO":999,"REV_AT_EPOCH":8427,"BSTAR":0,"MEAN_MOTION_DOT":-1.43e-6,"MEAN_MOTION_DDOT":0},{"OBJECT_NAME":"SCATHA AKM","OBJECT_ID":"1979-007C","EPOCH":"2026-03-05T11:12:05.256864","MEAN_MOTION":1.01590864,"ECCENTRICITY":0.1755676,"INCLINATION":9.9133,"RA_OF_ASC_NODE":278.462,"ARG_OF_PERICENTER":135.9629,"MEAN_ANOMALY":33.6157,"EPHEMERIS_TYPE":0,"CLASSIFICATION_TYPE":"U","NORAD_CAT_ID":29000,"ELEMENT_SET_NO":999,"REV_AT_EPOCH":4689,"BSTAR":0,"MEAN_MOTION_DOT":-3.42e-6,"MEAN_MOTION_DDOT":0},{"OBJECT_NAME":"SATCOM 3 DEB","OBJECT_ID":"1979-101F","EPOCH":"2026-03-05T09:27:06.441120","MEAN_MOTION":1.83291591,"ECCENTRICITY":0.4893815,"INCLINATION":9.0274,"RA_OF_ASC_NODE":51.8825,"ARG_OF_PERICENTER":170.7479,"MEAN_ANOMALY":241.252,"EPHEMERIS_TYPE":0,"CLASSIFICATION_TYPE":"U","NORAD_CAT_ID":29003,"ELEMENT_SET_NO":999,"REV_AT_EPOCH":8470,"BSTAR":0,"MEAN_MOTION_DOT":-1.35e-6,"MEAN_MOTION_DDOT":0},{"OBJECT_NAME":"SATCOM 3 DEB","OBJECT_ID":"1979-101G","EPOCH":"2026-03-05T05:33:58.793472","MEAN_MOTION":1.81208631,"ECCENTRICITY":0.4768597,"INCLINATION":8.2978,"RA_OF_ASC_NODE":97.04,"ARG_OF_PERICENTER":79.3641,"MEAN_ANOMALY":37.5679,"EPHEMERIS_TYPE":0,"CLASSIFICATION_TYPE":"U","NORAD_CAT_ID":29004,"ELEMENT_SET_NO":999,"REV_AT_EPOCH":13287,"BSTAR":0,"MEAN_MOTION_DOT":-1.63e-6,"MEAN_MOTION_DDOT":0},{"OBJECT_NAME":"EKRAN 2 DEB","OBJECT_ID":"1977-092K","EPOCH":"2026-03-05T15:02:20.679936","MEAN_MOTION":1.00120121,"ECCENTRICITY":0.002028,"INCLINATION":4.3999,"RA_OF_ASC_NODE":275.6692,"ARG_OF_PERICENTER":347.0904,"MEAN_ANOMALY":345.3898,"EPHEMERIS_TYPE":0,"CLASSIFICATION_TYPE":"U","NORAD_CAT_ID":29014,"ELEMENT_SET_NO":999,"REV_AT_EPOCH":4623,"BSTAR":0,"MEAN_MOTION_DOT":1.08e-6,"MEAN_MOTION_DDOT":0}]
