ARIANE 5 R/B            
1 28787U 05028B   26064.75746780 -.00000040  00000+0  12976-2 0  9990
2 28787   6.8612 263.4103 7165101  71.8137 349.4415  2.26684636170296
ANIK F1R                
1 28868U 05036A   26064.63330159 -.00000081  00000+0  00000+0 0  9992
2 28868   4.0480  77.8764 0003008 303.5219 262.6619  1.00272331 45418
SYRACUSE 3A             
1 28885U 05041B   26064.66372174  .00000125  00000+0  00000+0 0  9991
2 28885   4.3782  77.1239 0003635 271.4027  99.9956  1.00272122 74719
ARIANE 5 R/B            
1 28886U 05041C   26064.52583617 -.00000145  00000+0  49568-3 0  9992
2 28886   7.7952 241.3718 7179754 295.0417  11.9718  2.24429660167138
INMARSAT 4-F2           
1 28899U 05044A   26064.78794816 -.00000265  00000+0  00000+0 0  9999
2 28899   4.9600  43.8087 0002714 323.6628 223.1994  1.00271238 74488
METEOSAT-9 (MSG-2)      
1 28912U 05049B   26064.59230808  .00000119  00000+0  00000+0 0  9992
2 28912   9.1276  55.1704 0001671 223.3348 143.8053  1.00277983  5962
ARIANE 5 R/B            
1 28913U 05049C   26064.58884139 -.00000042  00000+0  44540-3 0  9991
2 28913   4.6092 352.1673 7147923 262.1399  65.7413  2.24900335166061
ARIANE 5 DEB [SYLDA]    
1 28914U 05049D   26064.45736748 -.00000119  00000+0 -19901-3 0  9999
2 28914   4.7039  12.3696 7155428 218.9952 186.2202  2.23712476164987
EUTELSAT 174A           
1 28924U 05052A   26064.68030781  .00000004  00000+0  00000+0 0  9990
2 28924   3.9565  77.8123 0006281 271.0821 233.4096  1.00274173 51290
ECHOSTAR 10             
1 28935U 06003A   26064.63269493 -.00000062  00000+0  00000+0 0  9993
2 28935   0.0574 291.6586 0002016  17.0970 332.1721  1.00271748 73420
BLOCK DM-SL R/B         
1 28936U 06003B   26064.56682797 -.00000062  00000+0  00000+0 0  9992
2 28936   0.3297 311.8421 6796438 148.8570 194.1217  2.19496457160804
SPAINSAT                
1 28945U 06007A   26063.63272935 -.00000228  00000+0  00000+0 0  9996
2 28945   0.2928  89.1835 0004224 259.4534  11.3220  1.00272419 73172
BREEZE-M R/B            
1 28998U 03024C   26063.44375642 -.00000143  00000+0  00000+0 0  9994
2 28998  16.7039 143.0036 5039997  53.3005   9.1239  1.82403593 84279
SCATHA AKM              
1 29000U 79007C   26064.46672751 -.00000342  00000+0  00000+0 0  9998
2 29000   9.9133 278.4620 1755676 135.9629  33.6157  1.01590864 46895
SATCOM 3 DEB            
1 29003U 79101F   26064.39382455 -.00000135  00000+0  00000+0 0  9997
2 29003   9.0274  51.8825 4893815 170.7479 241.2520  1.83291591 84704
SATCOM 3 DEB            
1 29004U 79101G   26064.23193048 -.00000163  00000+0  00000+0 0  9990
2 29004   8.2978  97.0400 4768597  79.3641  37.5679  1.81208631132875
EKRAN 2 DEB             
1 29014U 77092K   26064.62662824  .00000108  00000+0  00000+0 0  9992
2 29014   4.3999 275.6692 0020280 347.0904 345.3898  1.00120121 46231
